[
    {
        "Altitude(m)": 605470.738418409,
        "Argument of Periapsis(deg)": 0.0,
        "Eccentricity": 0.0,
        "Inclination(deg)": 60.0,
        "Latitude(deg)": 27.9880386711349,
        "Longitude(deg)": -52.73708748843792,
        "Mean Anomaly(deg)": -212.7273,
        "RAAN(deg)": 245.0,
        "Satellite Name": "Test1 1087",
        "Satellite Number": 1087,
        "Semi-Major Axis(m)": 6980739.136638005,
        "Time(s)": 0
    },
    {
        "Altitude(m)": 605395.7770605095,
        "Argument of Periapsis(deg)": 0.00010418945913296404,
        "Eccentricity": 0.0,
        "Inclination(deg)": 60.0,
        "Latitude(deg)": 27.4737297601671,
        "Longitude(deg)": -52.38389949665683,
        "Mean Anomaly(deg)": -212.1071938545382,
        "RAAN(deg)": 244.99957995086027,
        "Satellite Name": "Test1 1087",
        "Satellite Number": 1087,
        "Semi-Major Axis(m)": 6980739.136638005,
        "Time(s)": 10
    }
]